IONOSFERA-M 2           
1 61736U 24199B   26176.59684819  .00000043  00000+0  38705-4 0  9993
2 61736  98.7163  49.5904 0000683  38.3301 321.7925 14.22758972132029
PRSC-EO1                
1 62725U 25012A   26176.63113285  .00008388  00000+0  41902-3 0  9998
2 62725  97.4227 248.9257 0005454 216.3904 143.6960 15.17706419 79472
BIOMASS                 
1 63772U 25090A   26176.41992451  .00000661  00000+0  12495-3 0  9994
2 63772  98.0741   3.6181 0001429  94.8977 265.2391 14.67536962 61896
GOSAT-GW (IBUKI GW)     
1 64694U 25141A   26176.57646601  .00000540  00000+0  10356-3 0  9995
2 64694  98.0568 113.7571 0001423  84.3547 275.7820 14.67557349 53070
IONOSFERA-M 3           
1 64876U 25155A   26176.62207727  .00000038  00000+0  37066-4 0  9990
2 64876  98.6027 138.3148 0001500 142.6441 217.4841 14.21487790 47608
IONOSFERA-M 4           
1 64877U 25155B   26176.58651642  .00000043  00000+0  39032-4 0  9996
2 64877  98.6026 138.1974 0001351 116.7216 243.4100 14.21490165 47594
MICROCARB               
1 64899U 25156A   26176.16875803  .00000506  00000+0  87468-4 0  9992
2 64899  97.9921 253.1673 0015400 241.0722 118.8941 14.72530929 49142
CO3D 3                  
1 64900U 25156B   26176.48130005  .00004900  00000+0  22924-3 0  9995
2 64900  97.4332 255.0549 0001779 122.4390 237.7017 15.20212757 50794
CO3D 4                  
1 64901U 25156C   26176.48145216  .00005036  00000+0  23550-3 0  9993
2 64901  97.4333 255.0550 0000437 188.2616 171.8612 15.20214630 50790
CO3D 2                  
1 64902U 25156D   26176.51393295  .00005036  00000+0  23564-3 0  9995
2 64902  97.4334 254.9861 0001535 101.1009 259.0398 15.20195884 50794
CO3D 1                  
1 64903U 25156E   26176.51407911  .00007111  00000+0  33141-3 0  9995
2 64903  97.4333 254.9864 0001375 107.9358 252.2027 15.20190696 50790
PRSC-S1                 
1 65055U 25164A   26176.55092231  .00004155  00000+0  28785-3 0  9995
2 65055  41.1298 240.7058 0005354  43.3860 316.7375 15.06518343 49691
SENTINEL-6B             
1 66514U 25264A   26176.51803244 -.00000070  00000+0 -37413-4 0  9990
2 66514  66.0407 117.8754 0007967 269.0594  90.9508 12.80930010 28234
CAS500-3                
1 66655U 25274F   26176.55186607  .00001238  00000+0  13950-3 0  9992
2 66655  97.7445 104.4127 0006964  89.0187 271.1828 14.88339573 31399
CSG-3                   
1 67304U 26001A   26176.50282753  .00000320  00000+0  46735-4 0  9996
2 67304  97.8888 359.9841 0001437  96.1895 263.9482 14.82158954 25695
PRSC-E03                
1 68835U 26092A   26176.53885071  .00003029  00000+0  20720-3 0  9995
2 68835  38.0019  40.4310 0002658  87.7671 272.3395 15.06709252  9212
CAS500-2                
1 69013U 26100AK  26176.44351244  .00006578  00000+0  30219-3 0  9990
2 69013  97.4073  74.1559 0009790   7.8565 352.2822 15.20675493  8068
