OBJECT_NAME,OBJECT_ID,EPOCH,MEAN_MOTION,ECCENTRICITY,INCLINATION,RA_OF_ASC_NODE,ARG_OF_PERICENTER,MEAN_ANOMALY,EPHEMERIS_TYPE,CLASSIFICATION_TYPE,NORAD_CAT_ID,ELEMENT_SET_NO,REV_AT_EPOCH,BSTAR,MEAN_MOTION_DOT,MEAN_MOTION_DDOT
IONOSFERA-M 2,2024-199B,2026-06-25T14:19:27.683616,14.22758972,.00006835,98.7163,49.5904,38.3301,321.7925,0,U,61736,999,13202,.38705135E-4,.43E-6,0
PRSC-EO1,2025-012A,2026-06-25T15:08:49.878240,15.17706419,.00054541,97.4227,248.9257,216.3904,143.6960,0,U,62725,999,7947,.4190232E-3,.8388E-4,0
BIOMASS,2025-090A,2026-06-25T10:04:41.477664,14.67536962,.00014291,98.0741,3.6181,94.8977,265.2391,0,U,63772,999,6189,.1249487E-3,.661E-5,0
GOSAT-GW (IBUKI GW),2025-141A,2026-06-25T13:50:06.663264,14.67557349,.00014238,98.0568,113.7571,84.3547,275.7820,0,U,64694,999,5307,.10355669E-3,.54E-5,0
IONOSFERA-M 3,2025-155A,2026-06-25T14:55:47.476128,14.21487790,.00015006,98.6027,138.3148,142.6441,217.4841,0,U,64876,999,4760,.37066347E-4,.38E-6,0
IONOSFERA-M 4,2025-155B,2026-06-25T14:04:35.018688,14.21490165,.0001351,98.6026,138.1974,116.7216,243.4100,0,U,64877,999,4759,.39032341E-4,.43E-6,0
MICROCARB,2025-156A,2026-06-25T04:03:00.693792,14.72530929,.00154009,97.9921,253.1673,241.0722,118.8941,0,U,64899,999,4914,.87468278E-4,.506E-5,0
CO3D 3,2025-156B,2026-06-25T11:33:04.324320,15.20212757,.00017799,97.4332,255.0549,122.4390,237.7017,0,U,64900,999,5079,.22924137E-3,.49E-4,0
CO3D 4,2025-156C,2026-06-25T11:33:17.466624,15.20214630,.00004375,97.4333,255.0550,188.2616,171.8612,0,U,64901,999,5079,.235496E-3,.5036E-4,0
CO3D 2,2025-156D,2026-06-25T12:20:03.806880,15.20195884,.00015351,97.4334,254.9861,101.1009,259.0398,0,U,64902,999,5079,.23564455E-3,.5036E-4,0
CO3D 1,2025-156E,2026-06-25T12:20:16.435104,15.20190696,.0001375,97.4333,254.9864,107.9358,252.2027,0,U,64903,999,5079,.33140975E-3,.7111E-4,0
PRSC-S1,2025-164A,2026-06-25T13:13:19.687584,15.06518343,.0005354,41.1298,240.7058,43.3860,316.7375,0,U,65055,999,4969,.28784927E-3,.4155E-4,0
SENTINEL-6B,2025-264A,2026-06-25T12:25:58.002816,12.80930010,.00079678,66.0407,117.8754,269.0594,90.9508,0,U,66514,999,2823,-.374134E-4,-.7E-6,0
CAS500-3,2025-274F,2026-06-25T13:14:41.228448,14.88339573,.00069646,97.7445,104.4127,89.0187,271.1828,0,U,66655,999,3139,.13950367E-3,.1238E-4,0
CSG-3,2026-001A,2026-06-25T12:04:04.298592,14.82158954,.00014377,97.8888,359.9841,96.1895,263.9482,0,U,67304,999,2569,.46735421E-4,.32E-5,0
PRSC-E03,2026-092A,2026-06-25T12:55:56.701344,15.06709252,.0002658,38.0019,40.4310,87.7671,272.3395,0,U,68835,999,921,.20719784E-3,.3029E-4,0
CAS500-2,2026-100AK,2026-06-25T10:38:39.474816,15.20675493,.00097907,97.4073,74.1559,7.8565,352.2822,0,U,69013,999,806,.30218931E-3,.6578E-4,0
